CCSDS_OMM_VERS = 2.0
CREATION_DATE  = 
ORIGINATOR     = 

OBJECT_NAME    = ISS OBJECT XK
OBJECT_ID      = 1998-067XK
CENTER_NAME    = EARTH
REF_FRAME      = TEME
TIME_SYSTEM    = UTC
MEAN_ELEMENT_THEORY = SGP/SGP4

EPOCH          = 2026-02-27T12:05:14.102880
MEAN_MOTION    = 15.99162927
ECCENTRICITY   = .00071887
INCLINATION    = 51.6190
RA_OF_ASC_NODE = 100.7577
ARG_OF_PERICENTER = 28.6499
MEAN_ANOMALY   = 331.4904

EPHEMERIS_TYPE = 0
CLASSIFICATION_TYPE = U
NORAD_CAT_ID   = 65731
ELEMENT_SET_NO = 999
REV_AT_EPOCH   = 2526
BSTAR          = .12327084E-2
MEAN_MOTION_DOT = .616656E-2
MEAN_MOTION_DDOT = .17815894E-3

CCSDS_OMM_VERS = 2.0
CREATION_DATE  = 
ORIGINATOR     = 

OBJECT_NAME    = YOTSUBA-KULOVER
OBJECT_ID      = 1998-067XN
CENTER_NAME    = EARTH
REF_FRAME      = TEME
TIME_SYSTEM    = UTC
MEAN_ELEMENT_THEORY = SGP/SGP4

EPOCH          = 2026-02-27T09:14:07.157184
MEAN_MOTION    = 15.76267694
ECCENTRICITY   = .00060478
INCLINATION    = 51.6226
RA_OF_ASC_NODE = 110.5650
ARG_OF_PERICENTER = 9.8005
MEAN_ANOMALY   = 350.3112

EPHEMERIS_TYPE = 0
CLASSIFICATION_TYPE = U
NORAD_CAT_ID   = 65941
ELEMENT_SET_NO = 999
REV_AT_EPOCH   = 2187
BSTAR          = .99164364E-3
MEAN_MOTION_DOT = .161857E-2
MEAN_MOTION_DDOT = 0

CCSDS_OMM_VERS = 2.0
CREATION_DATE  = 
ORIGINATOR     = 

OBJECT_NAME    = BOTAN
OBJECT_ID      = 1998-067XP
CENTER_NAME    = EARTH
REF_FRAME      = TEME
TIME_SYSTEM    = UTC
MEAN_ELEMENT_THEORY = SGP/SGP4

EPOCH          = 2026-02-27T20:09:26.879616
MEAN_MOTION    = 16.08226179
ECCENTRICITY   = .00085206
INCLINATION    = 51.6102
RA_OF_ASC_NODE = 101.4721
ARG_OF_PERICENTER = 29.3265
MEAN_ANOMALY   = 330.8225

EPHEMERIS_TYPE = 0
CLASSIFICATION_TYPE = U
NORAD_CAT_ID   = 65942
ELEMENT_SET_NO = 999
REV_AT_EPOCH   = 2203
BSTAR          = .16323736E-2
MEAN_MOTION_DOT = .1392217E-1
MEAN_MOTION_DDOT = .12523931E-2

CCSDS_OMM_VERS = 2.0
CREATION_DATE  = 
ORIGINATOR     = 

OBJECT_NAME    = E-KAGAKU-1
OBJECT_ID      = 1998-067XQ
CENTER_NAME    = EARTH
REF_FRAME      = TEME
TIME_SYSTEM    = UTC
MEAN_ELEMENT_THEORY = SGP/SGP4

EPOCH          = 2026-02-27T19:57:02.436480
MEAN_MOTION    = 15.76186777
ECCENTRICITY   = .00063762
INCLINATION    = 51.6247
RA_OF_ASC_NODE = 108.3117
ARG_OF_PERICENTER = 20.3566
MEAN_ANOMALY   = 339.7687

EPHEMERIS_TYPE = 0
CLASSIFICATION_TYPE = U
NORAD_CAT_ID   = 65943
ELEMENT_SET_NO = 999
REV_AT_EPOCH   = 2194
BSTAR          = .90200236E-3
MEAN_MOTION_DOT = .146391E-2
MEAN_MOTION_DDOT = 0

CCSDS_OMM_VERS = 2.0
CREATION_DATE  = 
ORIGINATOR     = 

OBJECT_NAME    = HRC MONOBLOCK CAMERA
OBJECT_ID      = 1998-067XR
CENTER_NAME    = EARTH
REF_FRAME      = TEME
TIME_SYSTEM    = UTC
MEAN_ELEMENT_THEORY = SGP/SGP4

EPOCH          = 2026-02-27T09:31:50.199456
MEAN_MOTION    = 15.60992325
ECCENTRICITY   = .00031704
INCLINATION    = 51.6283
RA_OF_ASC_NODE = 117.4313
ARG_OF_PERICENTER = 49.9480
MEAN_ANOMALY   = 310.1791

EPHEMERIS_TYPE = 0
CLASSIFICATION_TYPE = U
NORAD_CAT_ID   = 66052
ELEMENT_SET_NO = 999
REV_AT_EPOCH   = 2078
BSTAR          = .5705658E-3
MEAN_MOTION_DOT = .48635E-3
MEAN_MOTION_DDOT = 0

CCSDS_OMM_VERS = 2.0
CREATION_DATE  = 
ORIGINATOR     = 

OBJECT_NAME    = HTV-X1
OBJECT_ID      = 2025-241A
CENTER_NAME    = EARTH
REF_FRAME      = TEME
TIME_SYSTEM    = UTC
MEAN_ELEMENT_THEORY = SGP/SGP4

EPOCH          = 2026-02-27T21:31:51.403872
MEAN_MOTION    = 15.48349372
ECCENTRICITY   = .00083217
INCLINATION    = 51.6325
RA_OF_ASC_NODE = 120.7666
ARG_OF_PERICENTER = 140.4027
MEAN_ANOMALY   = 219.7571

EPHEMERIS_TYPE = 0
CLASSIFICATION_TYPE = U
NORAD_CAT_ID   = 66174
ELEMENT_SET_NO = 999
REV_AT_EPOCH   = 55447
BSTAR          = .2272581E-3
MEAN_MOTION_DOT = .1182E-3
MEAN_MOTION_DDOT = 0

CCSDS_OMM_VERS = 2.0
CREATION_DATE  = 
ORIGINATOR     = 

OBJECT_NAME    = SZ-21 MODULE
OBJECT_ID      = 2025-246C
CENTER_NAME    = EARTH
REF_FRAME      = TEME
TIME_SYSTEM    = UTC
MEAN_ELEMENT_THEORY = SGP/SGP4

EPOCH          = 2026-02-27T15:05:25.801440
MEAN_MOTION    = 15.67676592
ECCENTRICITY   = .00014439
INCLINATION    = 41.4741
RA_OF_ASC_NODE = 265.2557
ARG_OF_PERICENTER = 287.0707
MEAN_ANOMALY   = 72.9977

EPHEMERIS_TYPE = 0
CLASSIFICATION_TYPE = U
NORAD_CAT_ID   = 66515
ELEMENT_SET_NO = 999
REV_AT_EPOCH   = 1649
BSTAR          = .31215352E-3
MEAN_MOTION_DOT = .34956E-3
MEAN_MOTION_DDOT = 0

CCSDS_OMM_VERS = 2.0
CREATION_DATE  = 
ORIGINATOR     = 

OBJECT_NAME    = SHENZHOU-22
OBJECT_ID      = 2025-272A
CENTER_NAME    = EARTH
REF_FRAME      = TEME
TIME_SYSTEM    = UTC
MEAN_ELEMENT_THEORY = SGP/SGP4

EPOCH          = 2026-02-27T22:09:30.567744
MEAN_MOTION    = 15.60204146
ECCENTRICITY   = .00061965
INCLINATION    = 41.4656
RA_OF_ASC_NODE = 267.5676
ARG_OF_PERICENTER = 211.0082
MEAN_ANOMALY   = 149.0391

EPHEMERIS_TYPE = 0
CLASSIFICATION_TYPE = U
NORAD_CAT_ID   = 66645
ELEMENT_SET_NO = 999
REV_AT_EPOCH   = 26752
BSTAR          = .28713198E-3
MEAN_MOTION_DOT = .23822E-3
MEAN_MOTION_DDOT = 0

CCSDS_OMM_VERS = 2.0
CREATION_DATE  = 
ORIGINATOR     = 

OBJECT_NAME    = SOYUZ-MS 28
OBJECT_ID      = 2025-275A
CENTER_NAME    = EARTH
REF_FRAME      = TEME
TIME_SYSTEM    = UTC
MEAN_ELEMENT_THEORY = SGP/SGP4

EPOCH          = 2026-02-27T21:31:51.403872
MEAN_MOTION    = 15.48349372
ECCENTRICITY   = .00083217
INCLINATION    = 51.6325
RA_OF_ASC_NODE = 120.7666
ARG_OF_PERICENTER = 140.4027
MEAN_ANOMALY   = 219.7571

EPHEMERIS_TYPE = 0
CLASSIFICATION_TYPE = U
NORAD_CAT_ID   = 66664
ELEMENT_SET_NO = 999
REV_AT_EPOCH   = 55452
BSTAR          = .2272581E-3
MEAN_MOTION_DOT = .1182E-3
MEAN_MOTION_DDOT = 0

CCSDS_OMM_VERS = 2.0
CREATION_DATE  = 
ORIGINATOR     = 

OBJECT_NAME    = DUPLEX
OBJECT_ID      = 1998-067XS
CENTER_NAME    = EARTH
REF_FRAME      = TEME
TIME_SYSTEM    = UTC
MEAN_ELEMENT_THEORY = SGP/SGP4

EPOCH          = 2026-02-27T10:30:05.461344
MEAN_MOTION    = 15.55480563
ECCENTRICITY   = .00018402
INCLINATION    = 51.6294
RA_OF_ASC_NODE = 120.7016
ARG_OF_PERICENTER = 82.9676
MEAN_ANOMALY   = 277.1524

EPHEMERIS_TYPE = 0
CLASSIFICATION_TYPE = U
NORAD_CAT_ID   = 66906
ELEMENT_SET_NO = 999
REV_AT_EPOCH   = 1353
BSTAR          = .50427351E-3
MEAN_MOTION_DOT = .34745E-3
MEAN_MOTION_DDOT = 0

CCSDS_OMM_VERS = 2.0
CREATION_DATE  = 
ORIGINATOR     = 

OBJECT_NAME    = ISS OBJECT XT
OBJECT_ID      = 1998-067XT
CENTER_NAME    = EARTH
REF_FRAME      = TEME
TIME_SYSTEM    = UTC
MEAN_ELEMENT_THEORY = SGP/SGP4

EPOCH          = 2026-02-27T10:42:32.708160
MEAN_MOTION    = 15.66015368
ECCENTRICITY   = .00042119
INCLINATION    = 51.6259
RA_OF_ASC_NODE = 117.7515
ARG_OF_PERICENTER = 20.2087
MEAN_ANOMALY   = 339.9075

EPHEMERIS_TYPE = 0
CLASSIFICATION_TYPE = U
NORAD_CAT_ID   = 66907
ELEMENT_SET_NO = 999
REV_AT_EPOCH   = 1357
BSTAR          = .11869851E-2
MEAN_MOTION_DOT = .125241E-2
MEAN_MOTION_DDOT = 0

CCSDS_OMM_VERS = 2.0
CREATION_DATE  = 
ORIGINATOR     = 

OBJECT_NAME    = ISS OBJECT XU
OBJECT_ID      = 1998-067XU
CENTER_NAME    = EARTH
REF_FRAME      = TEME
TIME_SYSTEM    = UTC
MEAN_ELEMENT_THEORY = SGP/SGP4

EPOCH          = 2026-02-27T09:08:57.503040
MEAN_MOTION    = 15.66080352
ECCENTRICITY   = .00042529
INCLINATION    = 51.6254
RA_OF_ASC_NODE = 118.0643
ARG_OF_PERICENTER = 22.3654
MEAN_ANOMALY   = 337.7526

EPHEMERIS_TYPE = 0
CLASSIFICATION_TYPE = U
NORAD_CAT_ID   = 66908
ELEMENT_SET_NO = 999
REV_AT_EPOCH   = 1356
BSTAR          = .11931992E-2
MEAN_MOTION_DOT = .126246E-2
MEAN_MOTION_DDOT = 0

